{
  "type": "FeatureCollection",
  "features": [
    {
      "type": "Feature",
      "properties": {
        "norad_id": 33805,
        "name": "COSMOS 2251 DEB",
        "group": "cosmos-2251-debris",
        "lat": 62.26878904092069,
        "lon": -12.318682874934062,
        "alt_km": 683.9430168914014,
        "timestamp": "2025-12-10T23:33:13.210788+00:00",
        "meta_object_name": "COSMOS 2251 DEB",
        "meta_object_id": "1993-036AW",
        "meta_epoch": "2025-12-10T08:25:25.116096",
        "meta_mean_motion": 14.57847209,
        "meta_eccentricity": 0.00602937,
        "meta_inclination": 74.0305,
        "meta_ra_of_asc_node": 315.8752,
        "meta_arg_of_pericenter": 145.5394,
        "meta_mean_anomaly": 214.9704,
        "meta_ephemeris_type": 0,
        "meta_classification_type": "U",
        "meta_norad_cat_id": 33805,
        "meta_element_set_no": 999,
        "meta_rev_at_epoch": 89192,
        "meta_bstar": 0.00038490706,
        "meta_mean_motion_dot": 1.777e-05,
        "meta_mean_motion_ddot": 0,
        "tle_line1": "1 33805U 93036AW  25344.35098514  .00001777  00000+0  38491-3 0  9992",
        "tle_line2": "2 33805  74.0305 315.8752 0060293 145.5394 214.9704 14.57847209891925"
      },
      "geometry": {
        "type": "Point",
        "coordinates": [
          -12.318682874934062,
          62.26878904092069
        ]
      }
    },
    {
      "type": "Feature",
      "properties": {
        "norad_id": 33811,
        "name": "COSMOS 2251 DEB",
        "group": "cosmos-2251-debris",
        "lat": -3.9114588380194686,
        "lon": -54.83313885574426,
        "alt_km": 535.9074461759265,
        "timestamp": "2025-12-10T23:33:13.210797+00:00",
        "meta_object_name": "COSMOS 2251 DEB",
        "meta_object_id": "1993-036BC",
        "meta_epoch": "2025-12-10T14:31:10.153632",
        "meta_mean_motion": 15.05158022,
        "meta_eccentricity": 0.00306772,
        "meta_inclination": 73.8381,
        "meta_ra_of_asc_node": 307.0832,
        "meta_arg_of_pericenter": 27.9622,
        "meta_mean_anomaly": 89.4314,
        "meta_ephemeris_type": 0,
        "meta_classification_type": "U",
        "meta_norad_cat_id": 33811,
        "meta_element_set_no": 999,
        "meta_rev_at_epoch": 89986,
        "meta_bstar": 0.0018666223,
        "meta_mean_motion_dot": 0.00026947,
        "meta_mean_motion_ddot": 0,
        "tle_line1": "1 33811U 93036BC  25344.60497863  .00026947  00000+0  18666-2 0  9994",
        "tle_line2": "2 33811  73.8381 307.0832 0030677  27.9622  89.4314 15.05158022899860"
      },
      "geometry": {
        "type": "Point",
        "coordinates": [
          -54.83313885574426,
          -3.9114588380194686
        ]
      }
    },
    {
      "type": "Feature",
      "properties": {
        "norad_id": 33815,
        "name": "COSMOS 2251 DEB",
        "group": "cosmos-2251-debris",
        "lat": -14.103843779544674,
        "lon": 176.12909454876814,
        "alt_km": 519.3404858522736,
        "timestamp": "2025-12-10T23:33:13.210807+00:00",
        "meta_object_name": "COSMOS 2251 DEB",
        "meta_object_id": "1993-036BG",
        "meta_epoch": "2025-12-10T00:34:36.803712",
        "meta_mean_motion": 15.1696459,
        "meta_eccentricity": 0.00027751,
        "meta_inclination": 73.9523,
        "meta_ra_of_asc_node": 182.2836,
        "meta_arg_of_pericenter": 231.9732,
        "meta_mean_anomaly": 286.9539,
        "meta_ephemeris_type": 0,
        "meta_classification_type": "U",
        "meta_norad_cat_id": 33815,
        "meta_element_set_no": 999,
        "meta_rev_at_epoch": 88329,
        "meta_bstar": 0.0073023687,
        "meta_mean_motion_dot": 0.00147157,
        "meta_mean_motion_ddot": 0,
        "tle_line1": "1 33815U 93036BG  25344.02403708  .00147157  00000+0  73024-2 0  9995",
        "tle_line2": "2 33815  73.9523 182.2836 0002775 231.9732 286.9539 15.16964590883297"
      },
      "geometry": {
        "type": "Point",
        "coordinates": [
          176.12909454876814,
          -14.103843779544674
        ]
      }
    },
    {
      "type": "Feature",
      "properties": {
        "norad_id": 33816,
        "name": "COSMOS 2251 DEB",
        "group": "cosmos-2251-debris",
        "lat": -14.972943964104457,
        "lon": 103.94460887109112,
        "alt_km": 1101.8507906305385,
        "timestamp": "2025-12-10T23:33:13.210817+00:00",
        "meta_object_name": "COSMOS 2251 DEB",
        "meta_object_id": "1993-036BH",
        "meta_epoch": "2025-12-10T14:56:37.125024",
        "meta_mean_motion": 13.81779104,
        "meta_eccentricity": 0.02648043,
        "meta_inclination": 73.8947,
        "meta_ra_of_asc_node": 108.984,
        "meta_arg_of_pericenter": 122.3287,
        "meta_mean_anomaly": 240.3775,
        "meta_ephemeris_type": 0,
        "meta_classification_type": "U",
        "meta_norad_cat_id": 33816,
        "meta_element_set_no": 999,
        "meta_rev_at_epoch": 84644,
        "meta_bstar": 0.00078630319,
        "meta_mean_motion_dot": 1.077e-05,
        "meta_mean_motion_ddot": 0,
        "tle_line1": "1 33816U 93036BH  25344.62265191  .00001077  00000+0  78630-3 0  9993",
        "tle_line2": "2 33816  73.8947 108.9840 0264804 122.3287 240.3775 13.81779104846445"
      },
      "geometry": {
        "type": "Point",
        "coordinates": [
          103.94460887109112,
          -14.972943964104457
        ]
      }
    },
    {
      "type": "Feature",
      "properties": {
        "norad_id": 33818,
        "name": "COSMOS 2251 DEB",
        "group": "cosmos-2251-debris",
        "lat": -73.875136888717,
        "lon": 70.83476429648661,
        "alt_km": 542.1697809238713,
        "timestamp": "2025-12-10T23:33:13.210838+00:00",
        "meta_object_name": "COSMOS 2251 DEB",
        "meta_object_id": "1993-036BK",
        "meta_epoch": "2025-12-10T11:21:59.400288",
        "meta_mean_motion": 15.12199668,
        "meta_eccentricity": 0.0027679,
        "meta_inclination": 74.0757,
        "meta_ra_of_asc_node": 170.9242,
        "meta_arg_of_pericenter": 160.5319,
        "meta_mean_anomaly": 223.3851,
        "meta_ephemeris_type": 0,
        "meta_classification_type": "U",
        "meta_norad_cat_id": 33818,
        "meta_element_set_no": 999,
        "meta_rev_at_epoch": 89828,
        "meta_bstar": 0.0033459523,
        "meta_mean_motion_dot": 0.00058751,
        "meta_mean_motion_ddot": 0,
        "tle_line1": "1 33818U 93036BK  25344.47360417  .00058751  00000+0  33460-2 0  9997",
        "tle_line2": "2 33818  74.0757 170.9242 0027679 160.5319 223.3851 15.12199668898283"
      },
      "geometry": {
        "type": "Point",
        "coordinates": [
          70.83476429648661,
          -73.875136888717
        ]
      }
    },
    {
      "type": "Feature",
      "properties": {
        "norad_id": 33819,
        "name": "COSMOS 2251 DEB",
        "group": "cosmos-2251-debris",
        "lat": 0.5418446404288164,
        "lon": 32.872681863531064,
        "alt_km": 802.2434269759542,
        "timestamp": "2025-12-10T23:33:13.210848+00:00",
        "meta_object_name": "COSMOS 2251 DEB",
        "meta_object_id": "1993-036BL",
        "meta_epoch": "2025-12-10T16:07:49.005408",
        "meta_mean_motion": 14.32211054,
        "meta_eccentricity": 0.00890087,
        "meta_inclination": 74.1789,
        "meta_ra_of_asc_node": 213.5856,
        "meta_arg_of_pericenter": 75.5382,
        "meta_mean_anomaly": 308.66,
        "meta_ephemeris_type": 0,
        "meta_classification_type": "U",
        "meta_norad_cat_id": 33819,
        "meta_element_set_no": 999,
        "meta_rev_at_epoch": 87466,
        "meta_bstar": 0.00091849551,
        "meta_mean_motion_dot": 2.562e-05,
        "meta_mean_motion_ddot": 0,
        "tle_line1": "1 33819U 93036BL  25344.67209497  .00002562  00000+0  91850-3 0  9997",
        "tle_line2": "2 33819  74.1789 213.5856 0089008  75.5382 308.6600 14.32211054874664"
      },
      "geometry": {
        "type": "Point",
        "coordinates": [
          32.872681863531064,
          0.5418446404288164
        ]
      }
    },
    {
      "type": "Feature",
      "properties": {
        "norad_id": 33821,
        "name": "COSMOS 2251 DEB",
        "group": "cosmos-2251-debris",
        "lat": -11.842328408599066,
        "lon": 143.11183002456622,
        "alt_km": 529.6172387350525,
        "timestamp": "2025-12-10T23:33:13.210858+00:00",
        "meta_object_name": "COSMOS 2251 DEB",
        "meta_object_id": "1993-036BN",
        "meta_epoch": "2025-12-10T12:35:15.751968",
        "meta_mean_motion": 15.25092149,
        "meta_eccentricity": 0.00524635,
        "meta_inclination": 74.0302,
        "meta_ra_of_asc_node": 147.5196,
        "meta_arg_of_pericenter": 181.688,
        "meta_mean_anomaly": 178.4153,
        "meta_ephemeris_type": 0,
        "meta_classification_type": "U",
        "meta_norad_cat_id": 33821,
        "meta_element_set_no": 999,
        "meta_rev_at_epoch": 74967,
        "meta_bstar": 0.0017654468,
        "meta_mean_motion_dot": 0.00046203,
        "meta_mean_motion_ddot": 0,
        "tle_line1": "1 33821U 93036BN  25344.52448787  .00046203  00000+0  17654-2 0  9990",
        "tle_line2": "2 33821  74.0302 147.5196 0052463 181.6880 178.4153 15.25092149749670"
      },
      "geometry": {
        "type": "Point",
        "coordinates": [
          143.11183002456622,
          -11.842328408599066
        ]
      }
    }
  ]
}